[{"OBJECT_NAME":"STARLINK-36157","OBJECT_ID":"2025-286J","EPOCH":"2026-03-09T22:35:23.838432","MEAN_MOTION":15.30193765,"ECCENTRICITY":7.554e-5,"INCLINATION":53.1613,"RA_OF_ASC_NODE":357.398,"ARG_OF_PERICENTER":69.1163,"MEAN_ANOMALY":290.9919,"EPHEMERIS_TYPE":0,"CLASSIFICATION_TYPE":"U","NORAD_CAT_ID":66933,"ELEMENT_SET_NO":999,"REV_AT_EPOCH":1545,"BSTAR":0.0011434674,"MEAN_MOTION_DOT":0.00033654,"MEAN_MOTION_DDOT":0},{"OBJECT_NAME":"OBJECT BE","OBJECT_ID":"2025-313BE","EPOCH":"2026-03-09T16:43:59.380320","MEAN_MOTION":15.29801687,"ECCENTRICITY":0.00072083,"INCLINATION":97.3989,"RA_OF_ASC_NODE":145.3568,"ARG_OF_PERICENTER":335.3714,"MEAN_ANOMALY":24.7181,"EPHEMERIS_TYPE":0,"CLASSIFICATION_TYPE":"U","NORAD_CAT_ID":67482,"ELEMENT_SET_NO":999,"REV_AT_EPOCH":797,"BSTAR":0.0026504328,"MEAN_MOTION_DOT":0.00077178,"MEAN_MOTION_DDOT":0}]
